[Satellite]
VERSION=1.1
NAME=CZ-6A DEB
NICKNAME=CZ-6A DEB
TLE1=1 54318U 22151BM  22342.24041287  .00001118  00000+0  68624-3 0  9992
TLE2=2 54318  98.8155 346.6665 0055134  11.2612 348.9777 14.06970786  3125
STATUS=0
